[{"adcode":"340100","city":"合肥市","code":"0551","jianpin":"hf","pinyin":"hefei"},{"adcode":"340200","city":"芜湖市","code":"0553","jianpin":"wh","pinyin":"wuhu"},{"adcode":"340800","city":"安庆市","code":"0556","jianpin":"aq","pinyin":"anqing"},{"adcode":"340300","city":"蚌埠市","code":"0552","jianpin":"bb","pinyin":"bangbu"},{"adcode":"341600","city":"亳州市","code":"0558","jianpin":"bz","pinyin":"bozhou"},{"adcode":"341700","city":"池州市","code":"0566","jianpin":"cz","pinyin":"chizhou"},{"adcode":"341100","city":"滁州市","code":"0550","jianpin":"cz","pinyin":"chuzhou"},{"adcode":"341200","city":"阜阳市","code":"1558","jianpin":"fy","pinyin":"fuyang"},{"adcode":"341000","city":"黄山市","code":"0559","jianpin":"hs","pinyin":"huangshan"},{"adcode":"340600","city":"淮北市","code":"0561","jianpin":"hb","pinyin":"huaibei"},{"adcode":"340400","city":"淮南市","code":"0554","jianpin":"hn","pinyin":"huainan"},{"adcode":"341500","city":"六安市","code":"0564","jianpin":"la","pinyin":"liuan"},{"adcode":"340500","city":"马鞍山市","code":"0555","jianpin":"mas","pinyin":"maanshan"},{"adcode":"341300","city":"宿州市","code":"0557","jianpin":"sz","pinyin":"suzhou1"},{"adcode":"340700","city":"铜陵市","code":"0562","jianpin":"tl","pinyin":"tongling"},{"adcode":"341800","city":"宣城市","code":"0563","jianpin":"xc","pinyin":"xuancheng"},{"adcode":"350100","city":"福州市","code":"0591","jianpin":"fz","pinyin":"fuzhou"},{"adcode":"350200","city":"厦门市","code":"0592","jianpin":"xm","pinyin":"xiamen"},{"adcode":"350500","city":"泉州市","code":"0595","jianpin":"qz","pinyin":"quanzhou"},{"adcode":"350800","city":"龙岩市","code":"0597","jianpin":"ly","pinyin":"longyan"},{"adcode":"350900","city":"宁德市","code":"0593","jianpin":"nd","pinyin":"ningde"},{"adcode":"350700","city":"南平市","code":"0599","jianpin":"np","pinyin":"nanping"},{"adcode":"350300","city":"莆田市","code":"0594","jianpin":"pt","pinyin":"putian"},{"adcode":"350400","city":"三明市","code":"0598","jianpin":"sm","pinyin":"sanming"},{"adcode":"350600","city":"漳州市","code":"0596","jianpin":"zz","pinyin":"zhangzhou"},{"adcode":"620100","city":"兰州市","code":"0931","jianpin":"lz","pinyin":"lanzhou"},{"adcode":"620400","city":"白银市","code":"0943","jianpin":"by","pinyin":"baiyin"},{"adcode":"621100","city":"定西市","code":"0932","jianpin":"dx","pinyin":"dingxi"},{"adcode":"620300","city":"金昌市","code":"0935","jianpin":"jc","pinyin":"jinchang"},{"adcode":"620900","city":"酒泉市","code":"0937","jianpin":"jq","pinyin":"jiuquan"},{"adcode":"620800","city":"平凉市","code":"0933","jianpin":"pl","pinyin":"pingliang"},{"adcode":"621000","city":"庆阳市","code":"0934","jianpin":"qy","pinyin":"qingyang"},{"adcode":"620600","city":"武威市","code":"1935","jianpin":"ww","pinyin":"wuwei"},{"adcode":"620500","city":"天水市","code":"0938","jianpin":"ts","pinyin":"tianshui"},{"adcode":"620700","city":"张掖市","code":"0936","jianpin":"zy","pinyin":"zhangye"},{"adcode":"623000","city":"甘南藏族自治州","code":"0941","jianpin":"gn","pinyin":"gannan"},{"adcode":"620200","city":"嘉峪关市","code":"1937","jianpin":"jyg","pinyin":"jiayuguan"},{"adcode":"622900","city":"临夏回族自治州","code":"0930","jianpin":"lx","pinyin":"linxia"},{"adcode":"621200","city":"陇南市","code":"2935","jianpin":"ln","pinyin":"longnan"},{"adcode":"440100","city":"广州市","code":"020","jianpin":"gz","pinyin":"guangzhou"},{"adcode":"440300","city":"深圳市","code":"0755","jianpin":"sz","pinyin":"shenzhen"},{"adcode":"440400","city":"珠海市","code":"0756","jianpin":"zh","pinyin":"zhuhai"},{"adcode":"441900","city":"东莞市","code":"0769","jianpin":"dg","pinyin":"dongguan"},{"adcode":"440600","city":"佛山市","code":"0757","jianpin":"fs","pinyin":"foshan"},{"adcode":"441300","city":"惠州市","code":"0752","jianpin":"hz","pinyin":"huizhou"},{"adcode":"440700","city":"江门市","code":"0750","jianpin":"jm","pinyin":"jiangmen"},{"adcode":"442000","city":"中山市","code":"0760","jianpin":"zs","pinyin":"zhongshan"},{"adcode":"440500","city":"汕头市","code":"0754","jianpin":"st","pinyin":"shantou"},{"adcode":"440800","city":"湛江市","code":"0759","jianpin":"zj","pinyin":"zhanjiang"},{"adcode":"445100","city":"潮州市","code":"0768","jianpin":"cz","pinyin":"chaozhou"},{"adcode":"441600","city":"河源市","code":"0762","jianpin":"hy","pinyin":"heyuan"},{"adcode":"445200","city":"揭阳市","code":"0663","jianpin":"jy","pinyin":"jieyang"},{"adcode":"440900","city":"茂名市","code":"0668","jianpin":"mm","pinyin":"maoming"},{"adcode":"441400","city":"梅州市","code":"0753","jianpin":"mz","pinyin":"meizhou"},{"adcode":"441800","city":"清远市","code":"0763","jianpin":"qy","pinyin":"qingyuan"},{"adcode":"440200","city":"韶关市","code":"0751","jianpin":"sg","pinyin":"shaoguan"},{"adcode":"441500","city":"汕尾市","code":"0660","jianpin":"sw","pinyin":"shanwei"},{"adcode":"441700","city":"阳江市","code":"0662","jianpin":"yj","pinyin":"yangjiang"},{"adcode":"445300","city":"云浮市","code":"0766","jianpin":"yf","pinyin":"yunfu"},{"adcode":"441200","city":"肇庆市","code":"0758","jianpin":"zq","pinyin":"zhaoqing"},{"adcode":"450100","city":"南宁市","code":"0771","jianpin":"nn","pinyin":"nanning"},{"adcode":"450500","city":"北海市","code":"0779","jianpin":"bh","pinyin":"beihai"},{"adcode":"450600","city":"防城港市","code":"0770","jianpin":"fcg","pinyin":"fangchenggang"},{"adcode":"450300","city":"桂林市","code":"0773","jianpin":"gl","pinyin":"guilin"},{"adcode":"450200","city":"柳州市","code":"0772","jianpin":"lz","pinyin":"liuzhou"},{"adcode":"451400","city":"崇左市","code":"1771","jianpin":"cz","pinyin":"chongzuo"},{"adcode":"451300","city":"来宾市","code":"1772","jianpin":"lb","pinyin":"laibin"},{"adcode":"450400","city":"梧州市","code":"0774","jianpin":"wz","pinyin":"wuzhou"},{"adcode":"451200","city":"河池市","code":"0778","jianpin":"hc","pinyin":"hechi"},{"adcode":"450900","city":"玉林市","code":"0775","jianpin":"yl","pinyin":"yulin"},{"adcode":"450800","city":"贵港市","code":"1755","jianpin":"gg","pinyin":"guigang"},{"adcode":"451100","city":"贺州市","code":"1774","jianpin":"hz","pinyin":"hezhou"},{"adcode":"450700","city":"钦州市","code":"0777","jianpin":"qz","pinyin":"qinzhou"},{"adcode":"451000","city":"百色市","code":"0776","jianpin":"bs","pinyin":"baise"},{"adcode":"520100","city":"贵阳市","code":"0851","jianpin":"gy","pinyin":"guiyang"},{"adcode":"520400","city":"安顺市","code":"0853","jianpin":"as","pinyin":"anshun"},{"adcode":"520300","city":"遵义市","code":"0852","jianpin":"zy","pinyin":"zunyi"},{"adcode":"520200","city":"六盘水市","code":"0858","jianpin":"lps","pinyin":"liupanshui"},{"adcode":"520500","city":"毕节市","code":"0857","jianpin":"bj","pinyin":"bijie"},{"adcode":"522600","city":"黔东南苗族侗族自治州","code":"0855","jianpin":"qdn","pinyin":"qiandongnan"},{"adcode":"522300","city":"黔西南布依族苗族自治州","code":"0859","jianpin":"qxn","pinyin":"qianxinan"},{"adcode":"522700","city":"黔南布依族苗族自治州","code":"0854","jianpin":"qn","pinyin":"qiannan"},{"adcode":"520600","city":"铜仁市","code":"0856","jianpin":"tr","pinyin":"tongren"},{"adcode":"460100","city":"海口市","code":"0898","jianpin":"hk","pinyin":"haikou"},{"adcode":"460200","city":"三亚市","code":"0899","jianpin":"sy","pinyin":"sanya"},{"adcode":"469025","city":"白沙黎族自治县","code":"0802","jianpin":"bsx","pinyin":"baishaxian"},{"adcode":"469029","city":"保亭黎族苗族自治县","code":"0801","jianpin":"btx","pinyin":"baotingxian"},{"adcode":"469026","city":"昌江黎族自治县","code":"0803","jianpin":"cjx","pinyin":"changjiangxian"},{"adcode":"469023","city":"澄迈县","code":"0804","jianpin":"cmx","pinyin":"chengmaixian"},{"adcode":"469021","city":"定安县","code":"0806","jianpin":"dax","pinyin":"dinganxian"},{"adcode":"469007","city":"东方市","code":"0807","jianpin":"df","pinyin":"dongfang"},{"adcode":"469027","city":"乐东黎族自治县","code":"2802","jianpin":"ldx","pinyin":"ledongxian"},{"adcode":"469024","city":"临高县","code":"1896","jianpin":"lgx","pinyin":"lingaoxian"},{"adcode":"469028","city":"陵水黎族自治县","code":"0809","jianpin":"lsx","pinyin":"lingshuixian"},{"adcode":"469002","city":"琼海市","code":"1894","jianpin":"qh","pinyin":"qionghai"},{"adcode":"469030","city":"琼中黎族苗族自治县","code":"1899","jianpin":"qzx","pinyin":"qiongzhongxian"},{"adcode":"469022","city":"屯昌县","code":"1892","jianpin":"tcx","pinyin":"tunchangxian"},{"adcode":"469006","city":"万宁市","code":"1898","jianpin":"wn","pinyin":"wanning"},{"adcode":"469005","city":"文昌市","code":"1893","jianpin":"wc","pinyin":"wenchang"},{"adcode":"469001","city":"五指山市","code":"1897","jianpin":"wzs","pinyin":"wuzhishan"},{"adcode":"460400","city":"儋州市","code":"0805","jianpin":"dz","pinyin":"danzhou"},{"adcode":"130100","city":"石家庄市","code":"0311","jianpin":"sjz","pinyin":"shijiazhuang"},{"adcode":"130600","city":"保定市","code":"0312","jianpin":"bd","pinyin":"baoding"},{"adcode":"130800","city":"承德市","code":"0314","jianpin":"cd","pinyin":"chengde"},{"adcode":"130400","city":"邯郸市","code":"0310","jianpin":"hd","pinyin":"handan"},{"adcode":"130200","city":"唐山市","code":"0315","jianpin":"ts","pinyin":"tangshan"},{"adcode":"130300","city":"秦皇岛市","code":"0335","jianpin":"qhd","pinyin":"qinhuangdao"},{"adcode":"130900","city":"沧州市","code":"0317","jianpin":"cz","pinyin":"cangzhou"},{"adcode":"131100","city":"衡水市","code":"0318","jianpin":"hs","pinyin":"hengshui"},{"adcode":"131000","city":"廊坊市","code":"0316","jianpin":"lf","pinyin":"langfang"},{"adcode":"130500","city":"邢台市","code":"0319","jianpin":"xt","pinyin":"xingtai"},{"adcode":"130700","city":"张家口市","code":"0313","jianpin":"zjk","pinyin":"zhangjiakou"},{"adcode":"410100","city":"郑州市","code":"0371","jianpin":"zz","pinyin":"zhengzhou"},{"adcode":"410300","city":"洛阳市","code":"0379","jianpin":"ly","pinyin":"luoyang"},{"adcode":"410200","city":"开封市","code":"0378","jianpin":"kf","pinyin":"kaifeng"},{"adcode":"411000","city":"许昌市","code":"0374","jianpin":"xc","pinyin":"xuchang"},{"adcode":"410500","city":"安阳市","code":"0372","jianpin":"ay","pinyin":"anyang"},{"adcode":"410400","city":"平顶山市","code":"0375","jianpin":"pds","pinyin":"pingdingshan"},{"adcode":"410600","city":"鹤壁市","code":"0392","jianpin":"hb","pinyin":"hebi"},{"adcode":"410800","city":"焦作市","code":"0391","jianpin":"jz","pinyin":"jiaozuo"},{"adcode":"419001","city":"济源市","code":"1391","jianpin":"jy","pinyin":"jiyuan"},{"adcode":"411100","city":"漯河市","code":"0395","jianpin":"lh","pinyin":"luohe"},{"adcode":"411300","city":"南阳市","code":"0377","jianpin":"ny","pinyin":"nanyang"},{"adcode":"410900","city":"濮阳市","code":"0393","jianpin":"py","pinyin":"puyang"},{"adcode":"411200","city":"三门峡市","code":"0398","jianpin":"smx","pinyin":"sanmenxia"},{"adcode":"411400","city":"商丘市","code":"0370","jianpin":"sq","pinyin":"shangqiu"},{"adcode":"410700","city":"新乡市","code":"0373","jianpin":"xx","pinyin":"xinxiang"},{"adcode":"411500","city":"信阳市","code":"0376","jianpin":"xy","pinyin":"xinyang"},{"adcode":"411700","city":"驻马店市","code":"0396","jianpin":"zmd","pinyin":"zhumadian"},{"adcode":"411600","city":"周口市","code":"0394","jianpin":"zk","pinyin":"zhoukou"},{"adcode":"230100","city":"哈尔滨市","code":"0451","jianpin":"heb","pinyin":"haerbin"},{"adcode":"230600","city":"大庆市","code":"0459","jianpin":"dq","pinyin":"daqing"},{"adcode":"230200","city":"齐齐哈尔市","code":"0452","jianpin":"qqhe","pinyin":"qiqihaer"},{"adcode":"230800","city":"佳木斯市","code":"0454","jianpin":"jms","pinyin":"jiamusi"},{"adcode":"232700","city":"大兴安岭地区","code":"0457","jianpin":"dxal","pinyin":"daxinganling"},{"adcode":"231100","city":"黑河市","code":"0456","jianpin":"hh","pinyin":"heihe"},{"adcode":"230400","city":"鹤岗市","code":"0468","jianpin":"hg","pinyin":"hegang"},{"adcode":"230300","city":"鸡西市","code":"0467","jianpin":"jx","pinyin":"jixi"},{"adcode":"231000","city":"牡丹江市","code":"0453","jianpin":"mdj","pinyin":"mudanjiang"},{"adcode":"230900","city":"七台河市","code":"0464","jianpin":"qth","pinyin":"qitaihe"},{"adcode":"231200","city":"绥化市","code":"0455","jianpin":"sh","pinyin":"suihua"},{"adcode":"230500","city":"双鸭山市","code":"0469","jianpin":"sys","pinyin":"shuangyashan"},{"adcode":"230700","city":"伊春市","code":"0458","jianpin":"yc","pinyin":"yichun1"},{"adcode":"420100","city":"武汉市","code":"027","jianpin":"wh","pinyin":"wuhan"},{"adcode":"420600","city":"襄阳市","code":"0710","jianpin":"xy","pinyin":"xiangyang"},{"adcode":"420300","city":"十堰市","code":"0719","jianpin":"sy","pinyin":"shiyan"},{"adcode":"420200","city":"黄石市","code":"0714","jianpin":"hs","pinyin":"huangshi"},{"adcode":"420700","city":"鄂州市","code":"0711","jianpin":"ez","pinyin":"ezhou"},{"adcode":"422800","city":"恩施土家族苗族自治州","code":"0718","jianpin":"es","pinyin":"enshi"},{"adcode":"421100","city":"黄冈市","code":"0713","jianpin":"hg","pinyin":"huanggang"},{"adcode":"421000","city":"荆州市","code":"0716","jianpin":"jz","pinyin":"jingzhou"},{"adcode":"420800","city":"荆门市","code":"0724","jianpin":"jm","pinyin":"jingmen"},{"adcode":"421300","city":"随州市","code":"0722","jianpin":"sz","pinyin":"suizhou"},{"adcode":"420500","city":"宜昌市","code":"0717","jianpin":"yc","pinyin":"yichang"},{"adcode":"429006","city":"天门市","code":"1728","jianpin":"tm","pinyin":"tianmen"},{"adcode":"429005","city":"潜江市","code":"2728","jianpin":"qj","pinyin":"qianjiang"},{"adcode":"429004","city":"仙桃市","code":"0728","jianpin":"xt","pinyin":"xiantao"},{"adcode":"420900","city":"孝感市","code":"0712","jianpin":"xg","pinyin":"xiaogan"},{"adcode":"421200","city":"咸宁市","code":"0715","jianpin":"xn","pinyin":"xianning"},{"adcode":"429021","city":"神农架林区","code":"1719","jianpin":"snj","pinyin":"shennongjia"},{"adcode":"430100","city":"长沙市","code":"0731","jianpin":"cs","pinyin":"changsha"},{"adcode":"430600","city":"岳阳市","code":"0730","jianpin":"yy","pinyin":"yueyang"},{"adcode":"430300","city":"湘潭市","code":"0732","jianpin":"xt","pinyin":"xiangtan"},{"adcode":"430700","city":"常德市","code":"0736","jianpin":"cd","pinyin":"changde"},{"adcode":"431000","city":"郴州市","code":"0735","jianpin":"cz","pinyin":"chenzhou"},{"adcode":"430400","city":"衡阳市","code":"0734","jianpin":"hy","pinyin":"hengyang"},{"adcode":"431200","city":"怀化市","code":"0745","jianpin":"hh","pinyin":"huaihua"},{"adcode":"431300","city":"娄底市","code":"0738","jianpin":"ld","pinyin":"loudi"},{"adcode":"430500","city":"邵阳市","code":"0739","jianpin":"sy","pinyin":"shaoyang"},{"adcode":"430900","city":"益阳市","code":"0737","jianpin":"yy","pinyin":"yiyang"},{"adcode":"431100","city":"永州市","code":"0746","jianpin":"yz","pinyin":"yongzhou"},{"adcode":"430200","city":"株洲市","code":"0733","jianpin":"zz","pinyin":"zhuzhou"},{"adcode":"430800","city":"张家界市","code":"0744","jianpin":"zjj","pinyin":"zhangjiajie"},{"adcode":"433100","city":"湘西土家族苗族自治州","code":"0743","jianpin":"xx","pinyin":"xiangxi"},{"adcode":"220100","city":"长春市","code":"0431","jianpin":"cc","pinyin":"changchun"},{"adcode":"220200","city":"吉林市","code":"0432","jianpin":"jl","pinyin":"jilin"},{"adcode":"222400","city":"延边朝鲜族自治州","code":"1433","jianpin":"yb","pinyin":"yanbian"},{"adcode":"220800","city":"白城市","code":"0436","jianpin":"bc","pinyin":"baicheng"},{"adcode":"220600","city":"白山市","code":"0439","jianpin":"bs","pinyin":"baishan"},{"adcode":"220400","city":"辽源市","code":"0437","jianpin":"ly","pinyin":"liaoyuan"},{"adcode":"220300","city":"四平市","code":"0434","jianpin":"sp","pinyin":"siping"},{"adcode":"220700","city":"松原市","code":"0438","jianpin":"sy","pinyin":"songyuan"},{"adcode":"220500","city":"通化市","code":"0435","jianpin":"th","pinyin":"tonghua"},{"adcode":"320100","city":"南京市","code":"025","jianpin":"nj","pinyin":"nanjing"},{"adcode":"320500","city":"苏州市","code":"0512","jianpin":"sz","pinyin":"suzhou"},{"adcode":"320400","city":"常州市","code":"0519","jianpin":"cz","pinyin":"changzhou"},{"adcode":"320700","city":"连云港市","code":"0518","jianpin":"lyg","pinyin":"lianyungang"},{"adcode":"321200","city":"泰州市","code":"0523","jianpin":"tz","pinyin":"taizhou"},{"adcode":"320200","city":"无锡市","code":"0510","jianpin":"wx","pinyin":"wuxi"},{"adcode":"320300","city":"徐州市","code":"0516","jianpin":"xz","pinyin":"xuzhou"},{"adcode":"321000","city":"扬州市","code":"0514","jianpin":"yz","pinyin":"yangzhou"},{"adcode":"321100","city":"镇江市","code":"0511","jianpin":"zj","pinyin":"zhenjiang"},{"adcode":"320800","city":"淮安市","code":"0517","jianpin":"ha","pinyin":"huaian"},{"adcode":"320600","city":"南通市","code":"0513","jianpin":"nt","pinyin":"nantong"},{"adcode":"321300","city":"宿迁市","code":"0527","jianpin":"sq","pinyin":"suqian"},{"adcode":"320900","city":"盐城市","code":"0515","jianpin":"yc","pinyin":"yancheng"},{"adcode":"360100","city":"南昌市","code":"0791","jianpin":"nc","pinyin":"nanchang"},{"adcode":"360700","city":"赣州市","code":"0797","jianpin":"gz","pinyin":"ganzhou"},{"adcode":"360400","city":"九江市","code":"0792","jianpin":"jj","pinyin":"jiujiang"},{"adcode":"360200","city":"景德镇市","code":"0798","jianpin":"jdz","pinyin":"jingdezhen"},{"adcode":"360800","city":"吉安市","code":"0796","jianpin":"ja","pinyin":"jian"},{"adcode":"360300","city":"萍乡市","code":"0799","jianpin":"px","pinyin":"pingxiang"},{"adcode":"361100","city":"上饶市","code":"0793","jianpin":"sr","pinyin":"shangrao"},{"adcode":"360500","city":"新余市","code":"0790","jianpin":"xy","pinyin":"xinyu"},{"adcode":"360900","city":"宜春市","code":"0795","jianpin":"yc","pinyin":"yichun"},{"adcode":"360600","city":"鹰潭市","code":"0701","jianpin":"yt","pinyin":"yingtan"},{"adcode":"361000","city":"抚州市","code":"0794","jianpin":"fz","pinyin":"fuzhou1"},{"adcode":"210100","city":"沈阳市","code":"024","jianpin":"sy","pinyin":"shenyang"},{"adcode":"210200","city":"大连市","code":"0411","jianpin":"dl","pinyin":"dalian"},{"adcode":"210300","city":"鞍山市","code":"0412","jianpin":"as","pinyin":"anshan"},{"adcode":"210600","city":"丹东市","code":"0415","jianpin":"dd","pinyin":"dandong"},{"adcode":"210400","city":"抚顺市","code":"0413","jianpin":"fs","pinyin":"fushun"},{"adcode":"210700","city":"锦州市","code":"0416","jianpin":"jz","pinyin":"jinzhou"},{"adcode":"210800","city":"营口市","code":"0417","jianpin":"yk","pinyin":"yingkou"},{"adcode":"210500","city":"本溪市","code":"0414","jianpin":"bx","pinyin":"benxi"},{"adcode":"211300","city":"朝阳市","code":"0421","jianpin":"cy","pinyin":"chaoyang"},{"adcode":"210900","city":"阜新市","code":"0418","jianpin":"fx","pinyin":"fuxin"},{"adcode":"211400","city":"葫芦岛市","code":"0429","jianpin":"hld","pinyin":"huludao"},{"adcode":"211000","city":"辽阳市","code":"0419","jianpin":"ly","pinyin":"liaoyang"},{"adcode":"211100","city":"盘锦市","code":"0427","jianpin":"pj","pinyin":"panjin"},{"adcode":"211200","city":"铁岭市","code":"0410","jianpin":"tl","pinyin":"tieling"},{"adcode":"150100","city":"呼和浩特市","code":"0471","jianpin":"hhht","pinyin":"huhehaote"},{"adcode":"150200","city":"包头市","code":"0472","jianpin":"bt","pinyin":"baotou"},{"adcode":"150400","city":"赤峰市","code":"0476","jianpin":"cf","pinyin":"chifeng"},{"adcode":"150600","city":"鄂尔多斯市","code":"0477","jianpin":"eeds","pinyin":"eerduosi"},{"adcode":"150900","city":"乌兰察布市","code":"0474","jianpin":"wlcb","pinyin":"wulanchabu"},{"adcode":"150300","city":"乌海市","code":"0473","jianpin":"wh","pinyin":"wuhai"},{"adcode":"152200","city":"兴安盟","code":"0482","jianpin":"xam","pinyin":"xinganmeng"},{"adcode":"150700","city":"呼伦贝尔市","code":"0470","jianpin":"hlbe","pinyin":"hulunbeier"},{"adcode":"150500","city":"通辽市","code":"0475","jianpin":"tl","pinyin":"tongliao"},{"adcode":"152900","city":"阿拉善盟","code":"0483","jianpin":"alsm","pinyin":"alashanmeng"},{"adcode":"150800","city":"巴彦淖尔市","code":"0478","jianpin":"byne","pinyin":"bayannaoer"},{"adcode":"152500","city":"锡林郭勒盟","code":"0479","jianpin":"xlgl","pinyin":"xilinguole"},{"adcode":"640100","city":"银川市","code":"0951","jianpin":"yc","pinyin":"yinchuan"},{"adcode":"640200","city":"石嘴山市","code":"0952","jianpin":"szs","pinyin":"shizuishan"},{"adcode":"640400","city":"固原市","code":"0954","jianpin":"gy","pinyin":"guyuan"},{"adcode":"640300","city":"吴忠市","code":"0953","jianpin":"wz","pinyin":"wuzhong"},{"adcode":"640500","city":"中卫市","code":"1953","jianpin":"zw","pinyin":"zhongwei"},{"adcode":"630100","city":"西宁市","code":"0971","jianpin":"xn","pinyin":"xining"},{"adcode":"632300","city":"黄南藏族自治州","code":"0973","jianpin":"hn","pinyin":"huangnan"},{"adcode":"632700","city":"玉树藏族自治州","code":"0976","jianpin":"ys","pinyin":"yushu"},{"adcode":"632600","city":"果洛藏族自治州","code":"0975","jianpin":"gl","pinyin":"guoluo"},{"adcode":"630200","city":"海东市","code":"0972","jianpin":"hd","pinyin":"haidong"},{"adcode":"632800","city":"海西蒙古族藏族自治州","code":"0977","jianpin":"hx","pinyin":"haixi"},{"adcode":"632500","city":"海南藏族自治州","code":"0974","jianpin":"hn","pinyin":"hainan"},{"adcode":"632200","city":"海北藏族自治州","code":"0970","jianpin":"hb","pinyin":"haibei"},{"adcode":"370100","city":"济南市","code":"0531","jianpin":"jn","pinyin":"jinan"},{"adcode":"370200","city":"青岛市","code":"0532","jianpin":"qd","pinyin":"qingdao"},{"adcode":"371000","city":"威海市","code":"0631","jianpin":"wh","pinyin":"weihai"},{"adcode":"370600","city":"烟台市","code":"0535","jianpin":"yt","pinyin":"yantai"},{"adcode":"370700","city":"潍坊市","code":"0536","jianpin":"wf","pinyin":"weifang"},{"adcode":"370900","city":"泰安市","code":"0538","jianpin":"ta","pinyin":"taian"},{"adcode":"371600","city":"滨州市","code":"0543","jianpin":"bz","pinyin":"binzhou"},{"adcode":"371400","city":"德州市","code":"0534","jianpin":"dz","pinyin":"dezhou"},{"adcode":"370500","city":"东营市","code":"0546","jianpin":"dy","pinyin":"dongying"},{"adcode":"371700","city":"菏泽市","code":"0530","jianpin":"hz","pinyin":"heze"},{"adcode":"370800","city":"济宁市","code":"0537","jianpin":"jn","pinyin":"jining"},{"adcode":"371500","city":"聊城市","code":"0635","jianpin":"lc","pinyin":"liaocheng"},{"adcode":"371300","city":"临沂市","code":"0539","jianpin":"ly","pinyin":"linyi"},{"adcode":"371200","city":"莱芜市","code":"0634","jianpin":"lw","pinyin":"laiwu"},{"adcode":"371100","city":"日照市","code":"0633","jianpin":"rz","pinyin":"rizhao"},{"adcode":"370300","city":"淄博市","code":"0533","jianpin":"zb","pinyin":"zibo"},{"adcode":"370400","city":"枣庄市","code":"0632","jianpin":"zz","pinyin":"zaozhuang"},{"adcode":"140100","city":"太原市","code":"0351","jianpin":"ty","pinyin":"taiyuan"},{"adcode":"140400","city":"长治市","code":"0355","jianpin":"cz","pinyin":"changzhi"},{"adcode":"140200","city":"大同市","code":"0352","jianpin":"dt","pinyin":"datong"},{"adcode":"140500","city":"晋城市","code":"0356","jianpin":"jc","pinyin":"jincheng"},{"adcode":"140700","city":"晋中市","code":"0354","jianpin":"jz","pinyin":"jinzhong"},{"adcode":"141000","city":"临汾市","code":"0357","jianpin":"lf","pinyin":"linfen"},{"adcode":"141100","city":"吕梁市","code":"0358","jianpin":"ll","pinyin":"lvliang"},{"adcode":"140600","city":"朔州市","code":"0349","jianpin":"sz","pinyin":"shuozhou"},{"adcode":"140900","city":"忻州市","code":"0350","jianpin":"xz","pinyin":"xinzhou"},{"adcode":"140800","city":"运城市","code":"0359","jianpin":"yc","pinyin":"yuncheng"},{"adcode":"140300","city":"阳泉市","code":"0353","jianpin":"yq","pinyin":"yangquan"},{"adcode":"610100","city":"西安市","code":"029","jianpin":"xa","pinyin":"xian"},{"adcode":"610900","city":"安康市","code":"0915","jianpin":"ak","pinyin":"ankang"},{"adcode":"610300","city":"宝鸡市","code":"0917","jianpin":"bj","pinyin":"baoji"},{"adcode":"610700","city":"汉中市","code":"0916","jianpin":"hz","pinyin":"hanzhong"},{"adcode":"611000","city":"商洛市","code":"0914","jianpin":"sl","pinyin":"shangluo"},{"adcode":"610200","city":"铜川市","code":"0919","jianpin":"tc","pinyin":"tongchuan"},{"adcode":"610500","city":"渭南市","code":"0913","jianpin":"wn","pinyin":"weinan"},{"adcode":"610400","city":"咸阳市","code":"0910","jianpin":"xy","pinyin":"xianyang"},{"adcode":"610600","city":"延安市","code":"0911","jianpin":"ya","pinyin":"yanan"},{"adcode":"610800","city":"榆林市","code":"0912","jianpin":"yl","pinyin":"yulin1"},{"adcode":"510100","city":"成都市","code":"028","jianpin":"cd","pinyin":"chengdu"},{"adcode":"510700","city":"绵阳市","code":"0816","jianpin":"my","pinyin":"mianyang"},{"adcode":"512000","city":"资阳市","code":"0832","jianpin":"zy","pinyin":"ziyang"},{"adcode":"511900","city":"巴中市","code":"0827","jianpin":"bz","pinyin":"bazhong"},{"adcode":"510600","city":"德阳市","code":"0838","jianpin":"dy","pinyin":"deyang"},{"adcode":"511700","city":"达州市","code":"0818","jianpin":"dz","pinyin":"dazhou"},{"adcode":"511600","city":"广安市","code":"0826","jianpin":"ga","pinyin":"guangan"},{"adcode":"510800","city":"广元市","code":"0839","jianpin":"gy","pinyin":"guangyuan"},{"adcode":"511100","city":"乐山市","code":"0833","jianpin":"ls","pinyin":"leshan"},{"adcode":"510500","city":"泸州市","code":"0830","jianpin":"lz","pinyin":"luzhou"},{"adcode":"511400","city":"眉山市","code":"1833","jianpin":"ms","pinyin":"meishan"},{"adcode":"511000","city":"内江市","code":"1832","jianpin":"nj","pinyin":"neijiang"},{"adcode":"511300","city":"南充市","code":"0817","jianpin":"nc","pinyin":"nanchong"},{"adcode":"510400","city":"攀枝花市","code":"0812","jianpin":"pzh","pinyin":"panzhihua"},{"adcode":"510900","city":"遂宁市","code":"0825","jianpin":"sn","pinyin":"suining"},{"adcode":"511500","city":"宜宾市","code":"0831","jianpin":"yb","pinyin":"yibin"},{"adcode":"511800","city":"雅安市","code":"0835","jianpin":"ya","pinyin":"yaan"},{"adcode":"510300","city":"自贡市","code":"0813","jianpin":"zg","pinyin":"zigong"},{"adcode":"513200","city":"阿坝藏族羌族自治州","code":"0837","jianpin":"ab","pinyin":"aba"},{"adcode":"513300","city":"甘孜藏族自治州","code":"0836","jianpin":"gz","pinyin":"ganzi"},{"adcode":"513400","city":"凉山彝族自治州","code":"0834","jianpin":"ls","pinyin":"liangshan"},{"adcode":"540100","city":"拉萨市","code":"0891","jianpin":"ls","pinyin":"lasa"},{"adcode":"540200","city":"日喀则市","code":"0892","jianpin":"rkz","pinyin":"rikaze"},{"adcode":"542500","city":"阿里地区","code":"0897","jianpin":"al","pinyin":"ali"},{"adcode":"540300","city":"昌都市","code":"0895","jianpin":"cd","pinyin":"changdu"},{"adcode":"540400","city":"林芝市","code":"0894","jianpin":"lz","pinyin":"linzhi"},{"adcode":"542400","city":"那曲地区","code":"0896","jianpin":"nq","pinyin":"naqu"},{"adcode":"542200","city":"山南地区","code":"","jianpin":"sn","pinyin":"shannan"},{"adcode":"650100","city":"乌鲁木齐市","code":"0991","jianpin":"wlmq","pinyin":"wulumuqi"},{"adcode":"659001","city":"石河子市","code":"0993","jianpin":"shz","pinyin":"shihezi"},{"adcode":"654000","city":"伊犁哈萨克自治州","code":"0999","jianpin":"yl","pinyin":"yili"},{"adcode":"652900","city":"阿克苏地区","code":"0997","jianpin":"aks","pinyin":"akesu"},{"adcode":"654300","city":"阿勒泰地区","code":"0906","jianpin":"alt","pinyin":"aletai"},{"adcode":"652800","city":"巴音郭楞蒙古自治州","code":"0996","jianpin":"by","pinyin":"bayin"},{"adcode":"652700","city":"博尔塔拉蒙古自治州","code":"0909","jianpin":"betl","pinyin":"boertala"},{"adcode":"652300","city":"昌吉回族自治州","code":"0994","jianpin":"cj","pinyin":"changji"},{"adcode":"652200","city":"哈密地区","code":"","jianpin":"hm","pinyin":"hami"},{"adcode":"653200","city":"和田地区","code":"0903","jianpin":"ht","pinyin":"hetian"},{"adcode":"653100","city":"喀什地区","code":"0998","jianpin":"ks","pinyin":"kashi"},{"adcode":"650200","city":"克拉玛依市","code":"0990","jianpin":"klmy","pinyin":"kelamayi"},{"adcode":"653000","city":"克孜勒苏柯尔克孜自治州","code":"0908","jianpin":"kzl","pinyin":"kezile"},{"adcode":"654200","city":"塔城地区","code":"0901","jianpin":"tc","pinyin":"tacheng"},{"adcode":"659002","city":"阿拉尔市","code":"1997","jianpin":"ale","pinyin":"alaer"},{"adcode":"659003","city":"图木舒克市","code":"1998","jianpin":"tmsk","pinyin":"tumushuke"},{"adcode":"659004","city":"五家渠市","code":"1994","jianpin":"wjq","pinyin":"wujiaqu"},{"adcode":"650400","city":"吐鲁番地区","code":"0995","jianpin":"tlf","pinyin":"tulufan"},{"adcode":"530100","city":"昆明市","code":"0871","jianpin":"km","pinyin":"kunming"},{"adcode":"530400","city":"玉溪市","code":"0877","jianpin":"yx","pinyin":"yuxi"},{"adcode":"532300","city":"楚雄彝族自治州","code":"0878","jianpin":"cx","pinyin":"chuxiong"},{"adcode":"532900","city":"大理白族自治州","code":"0872","jianpin":"dl","pinyin":"dali"},{"adcode":"532500","city":"红河哈尼族彝族自治州","code":"0873","jianpin":"hh","pinyin":"honghe"},{"adcode":"530300","city":"曲靖市","code":"0874","jianpin":"qj","pinyin":"qujing"},{"adcode":"532800","city":"西双版纳傣族自治州","code":"0691","jianpin":"xsbn","pinyin":"xishuangbanna"},{"adcode":"530600","city":"昭通市","code":"0870","jianpin":"zt","pinyin":"zhaotong"},{"adcode":"530500","city":"保山市","code":"0875","jianpin":"bs","pinyin":"baoshan"},{"adcode":"533100","city":"德宏傣族景颇族自治州","code":"0692","jianpin":"dh","pinyin":"dehong"},{"adcode":"533400","city":"迪庆藏族自治州","code":"0887","jianpin":"dq","pinyin":"diqing"},{"adcode":"530700","city":"丽江市","code":"0888","jianpin":"lj","pinyin":"lijiang"},{"adcode":"530900","city":"临沧市","code":"0883","jianpin":"lc","pinyin":"lincang"},{"adcode":"533300","city":"怒江傈僳族自治州","code":"0886","jianpin":"nj","pinyin":"nujiang"},{"adcode":"530800","city":"普洱市","code":"0879","jianpin":"pe","pinyin":"puer"},{"adcode":"532600","city":"文山壮族苗族自治州","code":"0876","jianpin":"ws","pinyin":"wenshan"},{"adcode":"330100","city":"杭州市","code":"0571","jianpin":"hz","pinyin":"hangzhou"},{"adcode":"330200","city":"宁波市","code":"0574","jianpin":"nb","pinyin":"ningbo"},{"adcode":"330400","city":"嘉兴市","code":"0573","jianpin":"jx","pinyin":"jiaxing"},{"adcode":"330600","city":"绍兴市","code":"0575","jianpin":"sx","pinyin":"shaoxing"},{"adcode":"330300","city":"温州市","code":"0577","jianpin":"wz","pinyin":"wenzhou"},{"adcode":"330900","city":"舟山市","code":"0580","jianpin":"zs","pinyin":"zhoushan"},{"adcode":"330500","city":"湖州市","code":"0572","jianpin":"hz","pinyin":"huzhou"},{"adcode":"330700","city":"金华市","code":"0579","jianpin":"jh","pinyin":"jinhua"},{"adcode":"331100","city":"丽水市","code":"0578","jianpin":"ls","pinyin":"lishui"},{"adcode":"331000","city":"台州市","code":"0576","jianpin":"tz","pinyin":"taizhou1"},{"adcode":"330800","city":"衢州市","code":"0570","jianpin":"qz","pinyin":"quzhou"},{"adcode":"110000","city":"北京市","code":"010","jianpin":"bj","pinyin":"beijing"},{"adcode":"310000","city":"上海市","code":"021","jianpin":"sh","pinyin":"shanghai"},{"adcode":"120000","city":"天津市","code":"022","jianpin":"tj","pinyin":"tianjin"},{"adcode":"500000","city":"重庆市","code":"023","jianpin":"cq","pinyin":"chongqing"},{"adcode":"810000","city":"香港特别行政区","code":"1852","jianpin":"xg","pinyin":"xianggang"},{"adcode":"820000","city":"澳门特别行政区","code":"1853","jianpin":"am","pinyin":"aomen"},{"adcode":"100000","city":"全国概要图","code":"000","jianpin":"qggyt","pinyin":"quanguogaiyaotu"}]